HULIANWANG DIGUI-144    
1 67442U 26007H   26037.52110464  .00000002  00000+0  14511-3 0  9995
2 67442  50.0079 199.7850 0002686 339.9783  20.1004 13.76725530  3323
HULIANWANG DIGUI-145    
1 67443U 26007J   26037.00955406  .00000023  00000+0  16497-3 0  9990
2 67443  50.0082 201.7399 0000113 336.5379  23.5508 13.77241786  3252
CZ-8A R/B               
1 67444U 26007K   26037.65421358 -.00000050  00000+0  53212-4 0  9994
2 67444  50.0085 195.1119 0092215 165.4012 194.9592 14.13551628  3390
STARLINK-36542          
1 67445U 26008A   26037.91671296 -.02360889  00000+0 -43007-1 0  9993
2 67445  43.0002  20.7832 0000959 268.1144 163.0556 15.52468836  4859
STARLINK-36539          
1 67446U 26008B   26037.91671296 -.02052691  00000+0 -34480-1 0  9998
2 67446  43.0003  20.6970 0001202 267.8498 198.6217 15.54166198  4859
STARLINK-36440          
1 67447U 26008C   26035.39396356 -.00618888  00000+0 -44540-2 0  9993
2 67447  42.9995  35.5635 0000730 302.0276  58.0522 15.74395349  4450
STARLINK-36423          
1 67448U 26008D   26037.91671296  .00126675  00000+0  21382-2 0  9998
2 67448  43.0004  20.8952 0001729 245.5898 139.7951 15.50474413  4854
STARLINK-36519          
1 67449U 26008E   26037.91671296 -.02004183  00000+0 -27714-1 0  9996
2 67449  43.0005  20.4802 0000710 250.9666 302.7682 15.59801507  4858
STARLINK-36525          
1 67450U 26008F   26037.91671296 -.01790946  00000+0 -32683-1 0  9997
2 67450  43.0000  20.7674 0001518 262.0246 174.9695 15.51988569  4859
STARLINK-36511          
1 67451U 26008G   26037.91671296 -.00018450  00000+0 -30957-3 0  9994
2 67451  43.0002  20.8680 0001428 258.6343 137.6614 15.50563322  4851
STARLINK-36524          
1 67452U 26008H   26037.91671296 -.02453013  00000+0 -42876-1 0  9996
2 67452  43.0003  20.7219 0000691 271.4822 183.8772 15.53141641  4853
STARLINK-36518          
1 67453U 26008J   26037.91671296 -.02044761  00000+0 -32553-1 0  9994
2 67453  42.9997  20.2400 0001074 248.9956  36.7855 15.55598459  4879
